STARLINK-31758          
1 59621U 24080W   26068.27576382  .00005081  00000+0  19416-3 0  9996
2 59621  43.0020  36.4146 0002114 253.3601 106.7019 15.27557412104510
FLOCK 4G-25             
1 62646U 25009AP  26068.74572546  .00010373  00000+0  38902-3 0  9990
2 62646  97.4049 151.4141 0000828 316.3151  43.8023 15.27424196 63734
